ONEWEB-0283             
1 49001U 21060AL  25202.49857249  .00000037  00000+0  62583-4 0  9999
2 49001  87.9051 294.7021 0002211  97.7568 262.3814 13.16596164196104
ONEWEB-0284             
1 49002U 21060AM  25202.49223963  .00000033  00000+0  53602-4 0  9998
2 49002  87.9068 294.6761 0001766  92.4900 267.6433 13.16595542196080
ONEWEB-0285             
1 49075U 21075A   25202.57219352  .00000151  00000+0  38554-3 0  9999
2 49075  87.8853  56.3963 0001725  80.9511 279.1813 13.12443132191845
ONEWEB-0286             
1 49076U 21075B   25202.63029175 -.00000329  00000+0 -94938-3 0  9996
2 49076  87.8873  56.4103 0001638  87.8233 272.3083 13.12442612191201
ONEWEB-0287             
1 49077U 21075C   25202.61651850  .00000018  00000+0  13347-4 0  9995
2 49077  87.9050  71.6621 0001354  84.9439 275.1847 13.17646606190094
ONEWEB-0288             
1 49078U 21075D   25202.60610644 -.00000035  00000+0 -13374-3 0  9991
2 49078  87.8854  56.3824 0001637  80.1572 279.9741 13.12440761191827
ONEWEB-0289             
1 49079U 21075E   25202.64608710 -.00016431  00000+0 -42718-1 0  9996
2 49079  87.9039  71.6857 0002016  62.1670 297.9666 13.17185336191646
ONEWEB-0290             
1 49080U 21075F   25202.62831869  .00000080  00000+0  17181-3 0  9998
2 49080  87.9039  71.6442 0002140  64.9845 295.1508 13.17649573190080
